STARLINK-31559          
1 59358U 24060L   26068.68488864 -.00000934  00000+0 -24430-4 0  9990
2 59358  42.9997 259.7507 0001313 280.0092  80.0611 15.27580822110060
FLOCK 4G-3              
1 62639U 25009AG  26068.80174065  .00011494  00000+0  43389-3 0  9993
2 62639  97.4062 151.4068 0001320 293.2042  66.9058 15.27179310 63727
