[{"OBJECT_NAME":"STARLINK-31559","OBJECT_ID":"2024-060L","EPOCH":"2026-03-09T16:26:14.378496","MEAN_MOTION":15.27580822,"ECCENTRICITY":0.00013126,"INCLINATION":42.9997,"RA_OF_ASC_NODE":259.7507,"ARG_OF_PERICENTER":280.0092,"MEAN_ANOMALY":80.0611,"EPHEMERIS_TYPE":0,"CLASSIFICATION_TYPE":"U","NORAD_CAT_ID":59358,"ELEMENT_SET_NO":999,"REV_AT_EPOCH":11006,"BSTAR":-2.4430215e-5,"MEAN_MOTION_DOT":-9.34e-6,"MEAN_MOTION_DDOT":0},{"OBJECT_NAME":"FLOCK 4G-3","OBJECT_ID":"2025-009AG","EPOCH":"2026-03-09T19:14:30.392160","MEAN_MOTION":15.2717931,"ECCENTRICITY":0.00013196,"INCLINATION":97.4062,"RA_OF_ASC_NODE":151.4068,"ARG_OF_PERICENTER":293.2042,"MEAN_ANOMALY":66.9058,"EPHEMERIS_TYPE":0,"CLASSIFICATION_TYPE":"U","NORAD_CAT_ID":62639,"ELEMENT_SET_NO":999,"REV_AT_EPOCH":6372,"BSTAR":0.0004338875,"MEAN_MOTION_DOT":0.00011494,"MEAN_MOTION_DDOT":0}]
